CCSDS_OEM_VERS = 1.0
CREATION_DATE  = 2017-05-11T11:35:48
ORIGINATOR     = GMAT USER

META_START
OBJECT_NAME          = MOPSSat_alt_35785_km_RAAN_180_074
OBJECT_ID            = SatId
CENTER_NAME          = Earth
REF_FRAME            = EME2000
TIME_SYSTEM          = UTC
START_TIME           = 2017-01-01T00:00:00.000
USEABLE_START_TIME   = 2017-01-01T00:00:00.000
USEABLE_STOP_TIME    = 2017-01-02T00:00:00.000
STOP_TIME            = 2017-01-02T00:00:00.000
INTERPOLATION        = Lagrange
INTERPOLATION_DEGREE = 7 
META_STOP


                                                                                   

2017-01-01T22:45:50.000  -4.014622815109565e+04   1.275402182550777e+04  -1.096132542644766e+02  -9.309709451175443e-01  -2.933352576339589e+00   2.573331157076753e-02
2017-01-01T22:46:00.000  -4.015552715454169e+04   1.272468490228900e+04  -1.093558918040846e+02  -9.288296976174616e-01  -2.934031921201164e+00   2.573917922222749e-02
2017-01-01T22:46:10.000  -4.016480474312473e+04   1.269534119313849e+04  -1.090984707332031e+02  -9.266879532760065e-01  -2.934709701790120e+00   2.574503313441633e-02
2017-01-01T22:46:20.000  -4.017406091187111e+04   1.266599071373290e+04  -1.088409911895225e+02  -9.245457132403549e-01  -2.935385917741047e+00   2.575087330416538e-02
2017-01-01T22:46:30.000  -4.018329565582558e+04   1.263663347973205e+04  -1.085834533105848e+02  -9.224029786564587e-01  -2.936060568689876e+00   2.575669972831774e-02
2017-01-01T22:46:40.000  -4.019250897002233e+04   1.260726950686782e+04  -1.083258572345641e+02  -9.202597506755310e-01  -2.936733654271781e+00   2.576251240371001e-02
2017-01-01T22:46:50.000  -4.020170084949754e+04   1.257789881091011e+04  -1.080682030999673e+02  -9.181160304515642e-01  -2.937405174122083e+00   2.576831132718026e-02
2017-01-01T22:47:00.000  -4.021087128929330e+04   1.254852140764999e+04  -1.078104910454868e+02  -9.159718191400992e-01  -2.938075127876533e+00   2.577409649557042e-02
2017-01-01T22:47:10.000  -4.022002028446854e+04   1.251913731286450e+04  -1.075527212096916e+02  -9.138271178956588e-01  -2.938743515172123e+00   2.577986790573320e-02
2017-01-01T22:47:20.000  -4.022914783010544e+04   1.248974654230066e+04  -1.072948937308868e+02  -9.116819278705754e-01  -2.939410335647549e+00   2.578562555453620e-02
2017-01-01T22:47:30.000  -4.023825392131869e+04   1.246034911164033e+04  -1.070370087468058e+02  -9.095362502124318e-01  -2.940075588943876e+00   2.579136943886766e-02
2017-01-01T22:47:40.000  -4.024733855322839e+04   1.243094503658973e+04  -1.067790663953949e+02  -9.073900860705905e-01  -2.940739274702581e+00   2.579709955561942e-02
2017-01-01T22:47:50.000  -4.025640172107772e+04   1.240153433249132e+04  -1.065210668114095e+02  -9.052434365678691e-01  -2.941401392574131e+00   2.580281590176113e-02
2017-01-01T22:48:00.000  -4.026544342008990e+04   1.237211701479399e+04  -1.062630101305378e+02  -9.030963028348531e-01  -2.942061942207540e+00   2.580851847424997e-02
2017-01-01T22:48:10.000  -4.027446364552250e+04   1.234269309887532e+04  -1.060048964878427e+02  -9.009486859969326e-01  -2.942720923254333e+00   2.581420727006499e-02
2017-01-01T22:48:20.000  -4.028346239245640e+04   1.231326260072960e+04  -1.057467260237960e+02  -8.988005872245104e-01  -2.943378335353136e+00   2.581988228607395e-02
2017-01-01T22:48:30.000  -4.029243965600695e+04   1.228382553627990e+04  -1.054884988782448e+02  -8.966520076827948e-01  -2.944034178145094e+00   2.582554351916656e-02
2017-01-01T22:48:40.000  -4.030139543126932e+04   1.225438192155554e+04  -1.052302151919679e+02  -8.945029485447553e-01  -2.944688451269886e+00   2.583119096621994e-02
2017-01-01T22:48:50.000  -4.031032971346385e+04   1.222493177222275e+04  -1.049718751025582e+02  -8.923534109568589e-01  -2.945341154376337e+00   2.583682462419039e-02
2017-01-01T22:49:00.000  -4.031924249781583e+04   1.219547510397179e+04  -1.047134787478194e+02  -8.902033960673353e-01  -2.945992287113637e+00   2.584244449003737e-02
2017-01-01T22:49:10.000  -4.032813377958308e+04   1.216601193242777e+04  -1.044550262649831e+02  -8.880529050196601e-01  -2.946641849133356e+00   2.584805056074118e-02
2017-01-01T22:49:20.000  -4.033700355404404e+04   1.213654227318483e+04  -1.041965177910092e+02  -8.859019389550513e-01  -2.947289840088581e+00   2.585364283329521e-02
2017-01-01T22:49:30.000  -4.034585181649416e+04   1.210706614182297e+04  -1.039379534627328e+02  -8.837504990136994e-01  -2.947936259633638e+00   2.585922130470372e-02
2017-01-01T22:49:40.000  -4.035467856223502e+04   1.207758355394334e+04  -1.036793334171745e+02  -8.815985863373426e-01  -2.948581107423313e+00   2.586478597197509e-02
2017-01-01T22:49:50.000  -4.036348378656838e+04   1.204809452518436e+04  -1.034206577916813e+02  -8.794462020704419e-01  -2.949224383112402e+00   2.587033683211790e-02
2017-01-01T22:50:00.000  -4.037226748478722e+04   1.201859907125685e+04  -1.031619267242350e+02  -8.772933473627477e-01  -2.949866086355070e+00   2.587587388213539e-02
2017-01-01T22:50:10.000  -4.038102965220178e+04   1.198909720785428e+04  -1.029031403526646e+02  -8.751400233627445e-01  -2.950506216806746e+00   2.588139711904191e-02
2017-01-01T22:50:20.000  -4.038977028402633e+04   1.195958895104205e+04  -1.026442988180619e+02  -8.729862312460723e-01  -2.951144774115847e+00   2.588690653979143e-02
2017-01-01T22:50:30.000  -4.039848937551690e+04   1.193007431678589e+04  -1.023854022606430e+02  -8.708319721810938e-01  -2.951781757933853e+00   2.589240214136445e-02
2017-01-01T22:50:40.000  -4.040718692191975e+04   1.190055332112711e+04  -1.021264508212874e+02  -8.686772473416965e-01  -2.952417167911534e+00   2.589788392073553e-02
2017-01-01T22:50:50.000  -4.041586291867188e+04   1.187102597950361e+04  -1.018674446355811e+02  -8.665220578577277e-01  -2.953051003713588e+00   2.590335187499954e-02
2017-01-01T22:51:00.000  -4.042451736120083e+04   1.184149230742714e+04  -1.016083838397573e+02  -8.643664048644275e-01  -2.953683265004041e+00   2.590880600124562e-02
2017-01-01T22:51:10.000  -4.043315024497046e+04   1.181195232032991e+04  -1.013492685693511e+02  -8.622102894912342e-01  -2.954313951449569e+00   2.591424629658598e-02
2017-01-01T22:51:20.000  -4.044176156536623e+04   1.178240603394632e+04  -1.010900989625483e+02  -8.600537128896455e-01  -2.954943062711125e+00   2.591967275808356e-02
2017-01-01T22:51:30.000  -4.045035131778116e+04   1.175285346402974e+04  -1.008308751577008e+02  -8.578966762125506e-01  -2.955570598450222e+00   2.592508538280626e-02
2017-01-01T22:51:40.000  -4.045891949761474e+04   1.172329462635228e+04  -1.005715972933239e+02  -8.557391806142048e-01  -2.956196558328846e+00   2.593048416782621e-02
2017-01-01T22:51:50.000  -4.046746610019334e+04   1.169372953698969e+04  -1.003122655105967e+02  -8.535812272710345e-01  -2.956820942003650e+00   2.593586911016969e-02
2017-01-01T22:52:00.000  -4.047599112087853e+04   1.166415821193786e+04  -1.000528799499968e+02  -8.514228173536368e-01  -2.957443749133855e+00   2.594124020688530e-02
2017-01-01T22:52:10.000  -4.048449455502394e+04   1.163458066726374e+04  -9.979344075262476e+01  -8.492639520378008e-01  -2.958064979378120e+00   2.594659745501691e-02
2017-01-01T22:52:20.000  -4.049297639816751e+04   1.160499691843795e+04  -9.953394805435046e+01  -8.471046324557931e-01  -2.958684632408560e+00   2.595194085172456e-02
2017-01-01T22:52:30.000  -4.050143664583900e+04   1.157540698100213e+04  -9.927440199166612e+01  -8.449448597450664e-01  -2.959302707896705e+00   2.595727039416341e-02
2017-01-01T22:52:40.000  -4.050987529360408e+04   1.154581087041816e+04  -9.901480270036389e+01  -8.427846350372555e-01  -2.959919205516709e+00   2.596258607951140e-02
2017-01-01T22:52:50.000  -4.051829233695188e+04   1.151620860245058e+04  -9.875515031889063e+01  -8.406239594860907e-01  -2.960534124937143e+00   2.596788790489842e-02
2017-01-01T22:53:00.000  -4.052668777137937e+04   1.148660019288292e+04  -9.849544498585922e+01  -8.384628342466912e-01  -2.961147465827146e+00   2.597317586745942e-02
2017-01-01T22:53:10.000  -4.053506159238993e+04   1.145698565751735e+04  -9.823568684004557e+01  -8.363012604755384e-01  -2.961759227856343e+00   2.597844996433368e-02
2017-01-01T22:53:20.000  -4.054341379541601e+04   1.142736501246018e+04  -9.797587602289313e+01  -8.341392393513188e-01  -2.962369410689170e+00   2.598371019261591e-02
2017-01-01T22:53:30.000  -4.055174437592453e+04   1.139773827373761e+04  -9.771601267514211e+01  -8.319767720468744e-01  -2.962978013992592e+00   2.598895654942276e-02
2017-01-01T22:53:40.000  -4.056005332937434e+04   1.136810545744984e+04  -9.745609693818153e+01  -8.298138597404509e-01  -2.963585037432988e+00   2.599418903186598e-02
2017-01-01T22:53:50.000  -4.056834065140680e+04   1.133846657909121e+04  -9.719612894808569e+01  -8.276505035660761e-01  -2.964190480690075e+00   2.599940763717242e-02
2017-01-01T22:54:00.000  -4.057660633765445e+04   1.130882165423170e+04  -9.693610884159234e+01  -8.254867046633032e-01  -2.964794343442927e+00   2.600461236256355e-02
2017-01-01T22:54:10.000  -4.058485038379057e+04   1.127917069834110e+04  -9.667603675455972e+01  -8.233224641643738e-01  -2.965396625373604e+00   2.600980320528673e-02
2017-01-01T22:54:20.000  -4.059307278539515e+04   1.124951372726174e+04  -9.641591282611357e+01  -8.211577832287249e-01  -2.965997326157352e+00   2.601498016253071e-02
2017-01-01T22:54:30.000  -4.060127353806597e+04   1.121985075681843e+04  -9.615573719522558e+01  -8.189926630145206e-01  -2.966596445470718e+00   2.602014323149563e-02
2017-01-01T22:54:40.000  -4.060945263739357e+04   1.119018180290554e+04  -9.589551000147712e+01  -8.168271046850026e-01  -2.967193982989732e+00   2.602529240937723e-02
2017-01-01T22:54:50.000  -4.061761007896964e+04   1.116050688146369e+04  -9.563523138485475e+01  -8.146611094067918e-01  -2.967789938390507e+00   2.603042769337221e-02
